OSCAR 7 (AO-7)          
1 07530U 74089B   25144.84518575 -.00000027  00000+0  11907-3 0  9992
2 07530 101.9933 148.9417 0012417 150.5466 268.2524 12.53689256312090
PHASE 3B (AO-10)        
1 14129U 83058B   25142.40485763  .00000028  00000+0  00000+0 0  9990
2 14129  26.7725 285.3981 6058726   7.3036 358.4435  2.05869199287443
UOSAT 2 (UO-11)         
1 14781U 84021B   25144.47690031  .00001243  00000+0  13675-3 0  9996
2 14781  97.7536 111.1659 0008811  39.0478 321.1374 14.89339497220241
LUSAT (LO-19)           
1 20442U 90005G   25144.47751645  .00000129  00000+0  63253-4 0  9995
2 20442  98.8983 150.2215 0010458 265.4558  94.5431 14.33948381846680
EYESAT A (AO-27)        
1 22825U 93061C   25144.41338874  .00000106  00000+0  57706-4 0  9997
2 22825  98.7372 205.8874 0008929 153.6800 206.4838 14.30793704651407
ITAMSAT (IO-26)         
1 22826U 93061D   25144.43686819  .00000121  00000+0  62775-4 0  9994
2 22826  98.7322 205.7933 0009703 139.3851 220.8057 14.31206258651706
RADIO ROSTO (RS-15)     
1 23439U 94085A   25144.83471046 -.00000033  00000+0  25803-3 0  9993
2 23439  64.8151 211.2682 0145528  77.4410 284.2747 11.27581144252409
JAS-2 (FO-29)           
1 24278U 96046B   25144.70870874 -.00000018  00000+0  17048-4 0  9998
2 24278  98.5778  40.6876 0350463  23.8922 337.8050 13.53247709420875
TECHSAT 1B (GO-32)      
1 25397U 98043D   25144.53465950  .00000062  00000+0  46907-4 0  9990
2 25397  98.9696 123.3199 0000324 211.1438 148.9721 14.24311000396222
ISS (ZARYA)             
1 25544U 98067A   25144.85934141  .00011156  00000+0  20518-3 0  9993
2 25544  51.6360  62.6541 0002122 144.9421 215.1708 15.49717269511540
PCSAT (NO-44)           
1 26931U 01043C   25144.50897443  .00000125  00000+0  77912-4 0  9992
2 26931  67.0490 169.3919 0005946 274.7818  85.2605 14.31726193234808
SAUDISAT 1C (SO-50)     
1 27607U 02058C   25144.62318059  .00000893  00000+0  12933-3 0  9997
2 27607  64.5530 249.7879 0054473 337.6816  22.1918 14.81582972207076
CUTE-1 (CO-55)          
1 27844U 03031E   25144.72962464  .00000306  00000+0  15257-3 0  9999
2 27844  98.6760 153.2078 0008625 228.5693 131.4746 14.23983851136410
CUBESAT XI-IV (CO-57)   
1 27848U 03031J   25144.45974260  .00000262  00000+0  13506-3 0  9996
2 27848  98.6791 152.9594 0008340 248.8450 111.1837 14.23320034136073
