[
  {
    "OBJECT_NAME": "OSCAR 7 (AO-7)",
    "OBJECT_ID": "1974-089B",
    "EPOCH": "2025-05-24T20:17:04.048800",
    "MEAN_MOTION": 12.53689256,
    "ECCENTRICITY": 0.0012417,
    "INCLINATION": 101.9933,
    "RA_OF_ASC_NODE": 148.9417,
    "ARG_OF_PERICENTER": 150.5466,
    "MEAN_ANOMALY": 268.2524,
    "EPHEMERIS_TYPE": 0,
    "CLASSIFICATION_TYPE": "U",
    "NORAD_CAT_ID": 7530,
    "ELEMENT_SET_NO": 999,
    "REV_AT_EPOCH": 31209,
    "BSTAR": 0.00011907,
    "MEAN_MOTION_DOT": -2.7e-07,
    "MEAN_MOTION_DDOT": 0
  },
  {
    "OBJECT_NAME": "PHASE 3B (AO-10)",
    "OBJECT_ID": "1983-058B",
    "EPOCH": "2025-05-22T09:42:59.699232",
    "MEAN_MOTION": 2.05869199,
    "ECCENTRICITY": 0.6058726,
    "INCLINATION": 26.7725,
    "RA_OF_ASC_NODE": 285.3981,
    "ARG_OF_PERICENTER": 7.3036,
    "MEAN_ANOMALY": 358.4435,
    "EPHEMERIS_TYPE": 0,
    "CLASSIFICATION_TYPE": "U",
    "NORAD_CAT_ID": 14129,
    "ELEMENT_SET_NO": 999,
    "REV_AT_EPOCH": 28744,
    "BSTAR": 0,
    "MEAN_MOTION_DOT": 2.8e-07,
    "MEAN_MOTION_DDOT": 0
  },
  {
    "OBJECT_NAME": "UOSAT 2 (UO-11)",
    "OBJECT_ID": "1984-021B",
    "EPOCH": "2025-05-24T11:26:44.186784",
    "MEAN_MOTION": 14.89339497,
    "ECCENTRICITY": 0.0008811,
    "INCLINATION": 97.7536,
    "RA_OF_ASC_NODE": 111.1659,
    "ARG_OF_PERICENTER": 39.0478,
    "MEAN_ANOMALY": 321.1374,
    "EPHEMERIS_TYPE": 0,
    "CLASSIFICATION_TYPE": "U",
    "NORAD_CAT_ID": 14781,
    "ELEMENT_SET_NO": 999,
    "REV_AT_EPOCH": 22024,
    "BSTAR": 0.00013675,
    "MEAN_MOTION_DOT": 1.243e-05,
    "MEAN_MOTION_DDOT": 0
  },
  {
    "OBJECT_NAME": "LUSAT (LO-19)",
    "OBJECT_ID": "1990-005G",
    "EPOCH": "2025-05-24T11:27:37.421280",
    "MEAN_MOTION": 14.33948381,
    "ECCENTRICITY": 0.0010458,
    "INCLINATION": 98.8983,
    "RA_OF_ASC_NODE": 150.2215,
    "ARG_OF_PERICENTER": 265.4558,
    "MEAN_ANOMALY": 94.5431,
    "EPHEMERIS_TYPE": 0,
    "CLASSIFICATION_TYPE": "U",
    "NORAD_CAT_ID": 20442,
    "ELEMENT_SET_NO": 999,
    "REV_AT_EPOCH": 84668,
    "BSTAR": 6.3253e-05,
    "MEAN_MOTION_DOT": 1.29e-06,
    "MEAN_MOTION_DDOT": 0
  },
  {
    "OBJECT_NAME": "EYESAT A (AO-27)",
    "OBJECT_ID": "1993-061C",
    "EPOCH": "2025-05-24T09:55:16.787136",
    "MEAN_MOTION": 14.30793704,
    "ECCENTRICITY": 0.0008929,
    "INCLINATION": 98.7372,
    "RA_OF_ASC_NODE": 205.8874,
    "ARG_OF_PERICENTER": 153.68,
    "MEAN_ANOMALY": 206.4838,
    "EPHEMERIS_TYPE": 0,
    "CLASSIFICATION_TYPE": "U",
    "NORAD_CAT_ID": 22825,
    "ELEMENT_SET_NO": 999,
    "REV_AT_EPOCH": 65140,
    "BSTAR": 5.7706e-05,
    "MEAN_MOTION_DOT": 1.06e-06,
    "MEAN_MOTION_DDOT": 0
  },
  {
    "OBJECT_NAME": "ITAMSAT (IO-26)",
    "OBJECT_ID": "1993-061D",
    "EPOCH": "2025-05-24T10:29:05.411616",
    "MEAN_MOTION": 14.31206258,
    "ECCENTRICITY": 0.0009703,
    "INCLINATION": 98.7322,
    "RA_OF_ASC_NODE": 205.7933,
    "ARG_OF_PERICENTER": 139.3851,
    "MEAN_ANOMALY": 220.8057,
    "EPHEMERIS_TYPE": 0,
    "CLASSIFICATION_TYPE": "U",
    "NORAD_CAT_ID": 22826,
    "ELEMENT_SET_NO": 999,
    "REV_AT_EPOCH": 65170,
    "BSTAR": 6.2775e-05,
    "MEAN_MOTION_DOT": 1.21e-06,
    "MEAN_MOTION_DDOT": 0
  },
  {
    "OBJECT_NAME": "RADIO ROSTO (RS-15)",
    "OBJECT_ID": "1994-085A",
    "EPOCH": "2025-05-24T20:01:58.983744",
    "MEAN_MOTION": 11.27581144,
    "ECCENTRICITY": 0.0145528,
    "INCLINATION": 64.8151,
    "RA_OF_ASC_NODE": 211.2682,
    "ARG_OF_PERICENTER": 77.441,
    "MEAN_ANOMALY": 284.2747,
    "EPHEMERIS_TYPE": 0,
    "CLASSIFICATION_TYPE": "U",
    "NORAD_CAT_ID": 23439,
    "ELEMENT_SET_NO": 999,
    "REV_AT_EPOCH": 25240,
    "BSTAR": 0.00025803,
    "MEAN_MOTION_DOT": -3.3e-07,
    "MEAN_MOTION_DDOT": 0
  },
  {
    "OBJECT_NAME": "JAS-2 (FO-29)",
    "OBJECT_ID": "1996-046B",
    "EPOCH": "2025-05-24T17:00:32.435136",
    "MEAN_MOTION": 13.53247709,
    "ECCENTRICITY": 0.0350463,
    "INCLINATION": 98.5778,
    "RA_OF_ASC_NODE": 40.6876,
    "ARG_OF_PERICENTER": 23.8922,
    "MEAN_ANOMALY": 337.805,
    "EPHEMERIS_TYPE": 0,
    "CLASSIFICATION_TYPE": "U",
    "NORAD_CAT_ID": 24278,
    "ELEMENT_SET_NO": 999,
    "REV_AT_EPOCH": 42087,
    "BSTAR": 1.7048e-05,
    "MEAN_MOTION_DOT": -1.8e-07,
    "MEAN_MOTION_DDOT": 0
  },
  {
    "OBJECT_NAME": "TECHSAT 1B (GO-32)",
    "OBJECT_ID": "1998-043D",
    "EPOCH": "2025-05-24T12:49:54.580800",
    "MEAN_MOTION": 14.24311,
    "ECCENTRICITY": 3.24e-05,
    "INCLINATION": 98.9696,
    "RA_OF_ASC_NODE": 123.3199,
    "ARG_OF_PERICENTER": 211.1438,
    "MEAN_ANOMALY": 148.9721,
    "EPHEMERIS_TYPE": 0,
    "CLASSIFICATION_TYPE": "U",
    "NORAD_CAT_ID": 25397,
    "ELEMENT_SET_NO": 999,
    "REV_AT_EPOCH": 39622,
    "BSTAR": 4.6907e-05,
    "MEAN_MOTION_DOT": 6.2e-07,
    "MEAN_MOTION_DDOT": 0
  },
  {
    "OBJECT_NAME": "ISS (ZARYA)",
    "OBJECT_ID": "1998-067A",
    "EPOCH": "2025-05-24T20:37:27.097824",
    "MEAN_MOTION": 15.49717269,
    "ECCENTRICITY": 0.0002122,
    "INCLINATION": 51.636,
    "RA_OF_ASC_NODE": 62.6541,
    "ARG_OF_PERICENTER": 144.9421,
    "MEAN_ANOMALY": 215.1708,
    "EPHEMERIS_TYPE": 0,
    "CLASSIFICATION_TYPE": "U",
    "NORAD_CAT_ID": 25544,
    "ELEMENT_SET_NO": 999,
    "REV_AT_EPOCH": 51154,
    "BSTAR": 0.00020518,
    "MEAN_MOTION_DOT": 0.00011156,
    "MEAN_MOTION_DDOT": 0
  },
  {
    "OBJECT_NAME": "PCSAT (NO-44)",
    "OBJECT_ID": "2001-043C",
    "EPOCH": "2025-05-24T12:12:55.390752",
    "MEAN_MOTION": 14.31726193,
    "ECCENTRICITY": 0.0005946,
    "INCLINATION": 67.049,
    "RA_OF_ASC_NODE": 169.3919,
    "ARG_OF_PERICENTER": 274.7818,
    "MEAN_ANOMALY": 85.2605,
    "EPHEMERIS_TYPE": 0,
    "CLASSIFICATION_TYPE": "U",
    "NORAD_CAT_ID": 26931,
    "ELEMENT_SET_NO": 999,
    "REV_AT_EPOCH": 23480,
    "BSTAR": 7.7912e-05,
    "MEAN_MOTION_DOT": 1.25e-06,
    "MEAN_MOTION_DDOT": 0
  },
  {
    "OBJECT_NAME": "SAUDISAT 1C (SO-50)",
    "OBJECT_ID": "2002-058C",
    "EPOCH": "2025-05-24T14:57:22.802976",
    "MEAN_MOTION": 14.81582972,
    "ECCENTRICITY": 0.0054473,
    "INCLINATION": 64.553,
    "RA_OF_ASC_NODE": 249.7879,
    "ARG_OF_PERICENTER": 337.6816,
    "MEAN_ANOMALY": 22.1918,
    "EPHEMERIS_TYPE": 0,
    "CLASSIFICATION_TYPE": "U",
    "NORAD_CAT_ID": 27607,
    "ELEMENT_SET_NO": 999,
    "REV_AT_EPOCH": 20707,
    "BSTAR": 0.00012933,
    "MEAN_MOTION_DOT": 8.93e-06,
    "MEAN_MOTION_DDOT": 0
  },
  {
    "OBJECT_NAME": "CUTE-1 (CO-55)",
    "OBJECT_ID": "2003-031E",
    "EPOCH": "2025-05-24T17:30:39.568896",
    "MEAN_MOTION": 14.23983851,
    "ECCENTRICITY": 0.0008625,
    "INCLINATION": 98.676,
    "RA_OF_ASC_NODE": 153.2078,
    "ARG_OF_PERICENTER": 228.5693,
    "MEAN_ANOMALY": 131.4746,
    "EPHEMERIS_TYPE": 0,
    "CLASSIFICATION_TYPE": "U",
    "NORAD_CAT_ID": 27844,
    "ELEMENT_SET_NO": 999,
    "REV_AT_EPOCH": 13641,
    "BSTAR": 0.00015257,
    "MEAN_MOTION_DOT": 3.06e-06,
    "MEAN_MOTION_DDOT": 0
  },
  {
    "OBJECT_NAME": "CUBESAT XI-IV (CO-57)",
    "OBJECT_ID": "2003-031J",
    "EPOCH": "2025-05-24T11:02:01.760640",
    "MEAN_MOTION": 14.23320034,
    "ECCENTRICITY": 0.000834,
    "INCLINATION": 98.6791,
    "RA_OF_ASC_NODE": 152.9594,
    "ARG_OF_PERICENTER": 248.845,
    "MEAN_ANOMALY": 111.1837,
    "EPHEMERIS_TYPE": 0,
    "CLASSIFICATION_TYPE": "U",
    "NORAD_CAT_ID": 27848,
    "ELEMENT_SET_NO": 999,
    "REV_AT_EPOCH": 13607,
    "BSTAR": 0.00013506,
    "MEAN_MOTION_DOT": 2.62e-06,
    "MEAN_MOTION_DDOT": 0
  }
]